STARLINK-32921          
1 62920U 25027P   26068.23068193  .00029188  00000+0  10649-2 0  9998
2 62920  42.9985 131.3284 0001420 183.4353 176.6489 15.27612444 61479
COSMOS 2588             
1 64095U 25109A   26068.81179522  .00009169  00000+0  32611-3 0  9998
2 64095  72.9704  73.5401 0005019 308.6780  51.3966 15.29122656 44425
